NORAD_CAT_ID,OBJECT_NAME,OBJECT_TYPE,EPOCH,MEAN_MOTION,ECCENTRICITY,INCLINATION,RA_OF_ASC_NODE,ARG_OF_PERICENTER,MEAN_ANOMALY,BSTAR,MEAN_MOTION_DOT,MEAN_MOTION_DDOT,TLE_LINE0,TLE_LINE1,TLE_LINE2,SEMIMAJOR_AXIS,PERIOD,APOGEE,PERIGEE,DECAYED
49135.0,STARLINK-3073,PAYLOAD,2023-02-16 12:42:40,14.98335032,0.0003259,69.9981,191.2141,272.215,87.8636,0.00016747,1.906e-05,0.0,0 STARLINK-3073,1 49135U 21082F   23047.52963111  .00001906  00000-0  16747-3 0  9993,2 49135  69.9981 191.2141 0003259 272.2150  87.8636 14.98335032 79634,6950.177,96.107,574.307,569.777,0.0
49135.0,STARLINK-3073,PAYLOAD,2023-02-16 15:54:55,14.98341059,0.0003346,69.9983,190.8772,269.3216,90.7559,0.00016222,1.844e-05,0.0,0 STARLINK-3073,1 49135U 21082F   23047.66314579  .00001844  00000-0  16222-3 0  9995,2 49135  69.9983 190.8772 0003346 269.3216  90.7559 14.98341059 79653,6950.159,96.106,574.349,569.698,0.0
49135.0,STARLINK-3073,PAYLOAD,2023-02-17 09:32:22,14.98354279,0.0003362,69.9985,189.0259,269.1894,90.888,0.0003632,4.246e-05,0.0,0 STARLINK-3073,1 49135U 21082F   23048.39748527  .00004246  00000-0  36320-3 0  9990,2 49135  69.9985 189.0259 0003362 269.1894  90.8880 14.98354279 79761,6950.118,96.105,574.319,569.646,0.0
49135.0,STARLINK-3073,PAYLOAD,2023-02-17 15:56:59,14.98299446,0.0003004,69.9982,188.3527,269.8534,90.228,-0.00037323,-4.54e-05,0.0,0 STARLINK-3073,1 49135U 21082F   23048.66457336 -.00004540  00000-0 -37323-3 0  9998,2 49135  69.9982 188.3527 0003004 269.8534  90.2280 14.98299446 79806,6950.287,96.109,574.24,570.065,0.0
49135.0,STARLINK-3073,PAYLOAD,2023-02-17 19:09:15,14.98300512,0.0002968,69.9982,188.016,269.509,90.5729,-0.0003569,-4.346e-05,0.0,0 STARLINK-3073,1 49135U 21082F   23048.79809374 -.00004346  00000-0 -35690-3 0  9994,2 49135  69.9982 188.0160 0002968 269.5090  90.5729 14.98300512 79828,6950.284,96.109,574.212,570.086,0.0
49135.0,STARLINK-3073,PAYLOAD,2023-02-18 09:34:27,14.9830517,0.0003054,69.9981,186.5012,270.1681,89.9128,-0.00015722,-1.967e-05,0.0,0 STARLINK-3073,1 49135U 21082F   23049.39893454 -.00001967  00000-0 -15722-3 0  9993,2 49135  69.9981 186.5012 0003054 270.1681  89.9128 14.98305170 79917,6950.27,96.109,574.257,570.012,0.0
49135.0,STARLINK-3073,PAYLOAD,2023-02-18 19:11:15,14.98318121,0.0003116,69.998,185.4914,268.3032,91.7771,-0.00011684,-1.486e-05,0.0,0 STARLINK-3073,1 49135U 21082F   23049.79948994 -.00001486  00000-0 -11684-3 0  9996,2 49135  69.9980 185.4914 0003116 268.3032  91.7771 14.98318121 79974,6950.23,96.108,574.26,569.929,0.0
49135.0,STARLINK-3073,PAYLOAD,2023-02-19 01:35:40,14.98486872,0.0003132,69.9981,184.8181,249.7909,110.2913,-0.0036622,-0.00043696,0.0,0 STARLINK-3073,1 49135U 21082F   23050.06644476 -.00043696  00000-0 -36622-2 0  9993,2 49135  69.9981 184.8181 0003132 249.7909 110.2913 14.98486872 80019,6949.708,96.097,573.749,569.396,0.0
49135.0,STARLINK-3073,PAYLOAD,2023-02-19 14:24:52,14.98342229,0.0002889,70.0,183.4715,274.4316,85.6513,0.0014472,0.00017223,0.0,0 STARLINK-3073,1 49135U 21082F   23050.60061336  .00017223  00000-0  14472-2 0  9995,2 49135  70.0000 183.4715 0002889 274.4316  85.6513 14.98342229 80093,6950.155,96.106,574.028,570.012,0.0
49135.0,STARLINK-3073,PAYLOAD,2023-02-20 14:26:52,14.98351156,0.0002586,70.001,180.9481,274.8576,85.2288,0.00023835,2.754e-05,0.0,0 STARLINK-3073,1 49135U 21082F   23051.60199944  .00002754  00000-0  23835-3 0  9990,2 49135  70.0010 180.9481 0002586 274.8576  85.2288 14.98351156 80243,6950.127,96.106,573.79,570.195,0.0
49135.0,STARLINK-3073,PAYLOAD,2023-02-20 17:39:08,14.98361552,0.0002781,70.0005,180.6104,277.1702,82.9141,0.00071666,8.475e-05,0.0,0 STARLINK-3073,1 49135U 21082F   23051.73551597  .00008475  00000-0  71666-3 0  9991,2 49135  70.0005 180.6104 0002781 277.1702  82.9141 14.98361552 80265,6950.095,96.105,573.893,570.027,0.0
49135.0,STARLINK-3073,PAYLOAD,2023-02-21 14:28:52,14.98350596,0.0002839,70.0,178.4215,273.8512,86.2323,0.00014718,1.664e-05,0.0,0 STARLINK-3073,1 49135U 21082F   23052.60338843  .00001664  00000-0  14718-3 0  9993,2 49135  70.0000 178.4215 0002839 273.8512  86.2323 14.98350596 80393,6950.129,96.106,573.967,570.021,0.0
49135.0,STARLINK-3073,PAYLOAD,2023-02-21 17:41:08,14.98350401,0.0002785,70.0001,178.0849,273.3635,86.7206,0.00015079,1.708e-05,0.0,0 STARLINK-3073,1 49135U 21082F   23052.73690677  .00001708  00000-0  15079-3 0  9993,2 49135  70.0001 178.0849 0002785 273.3635  86.7206 14.98350401 80417,6950.13,96.106,573.93,570.059,0.0
49135.0,STARLINK-3073,PAYLOAD,2023-02-22 11:18:37,14.98336829,0.0002677,70.0008,176.235,276.9462,83.1392,-6.8362e-05,-9.09e-06,0.0,0 STARLINK-3073,1 49135U 21082F   23053.47126909 -.00000909  00000-0 -68362-4 0  9995,2 49135  70.0008 176.2350 0002677 276.9462  83.1392 14.98336829 80525,6950.172,96.107,573.897,570.176,0.0
49135.0,STARLINK-3073,PAYLOAD,2023-02-22 12:54:45,14.98337813,0.0002516,70.0001,176.0668,276.1723,83.9149,-4.0186e-06,-1.41e-06,0.0,0 STARLINK-3073,1 49135U 21082F   23053.53803200 -.00000141  00000-0 -40186-5 0  9991,2 49135  70.0001 176.0668 0002516 276.1723  83.9149 14.98337813 80535,6950.169,96.106,573.782,570.285,0.0
49135.0,STARLINK-3073,PAYLOAD,2023-02-23 06:32:14,14.98331731,0.0003057,69.9989,174.2166,277.1956,82.8855,-5.4711e-05,-7.46e-06,0.0,0 STARLINK-3073,1 49135U 21082F   23054.27239341 -.00000746  00000-0 -54711-4 0  9991,2 49135  69.9989 174.2166 0003057 277.1956  82.8855 14.98331731 80647,6950.188,96.107,574.177,569.928,0.0
49135.0,STARLINK-3073,PAYLOAD,2023-02-23 11:20:39,14.98328829,0.0002917,69.9984,173.7102,270.2175,89.865,-0.00010344,-1.327e-05,0.0,0 STARLINK-3073,1 49135U 21082F   23054.47267520 -.00001327  00000-0 -10344-3 0  9992,2 49135  69.9984 173.7102 0002917 270.2175  89.8650 14.98328829 80674,6950.197,96.107,574.089,570.034,0.0
49135.0,STARLINK-3073,PAYLOAD,2023-02-23 17:45:10,14.98338337,0.0002951,69.9987,173.0363,271.0935,88.9886,3.9761e-05,3.82e-06,0.0,0 STARLINK-3073,1 49135U 21082F   23054.73970522  .00000382  00000-0  39761-4 0  9997,2 49135  69.9987 173.0363 0002951 271.0935  88.9886 14.98338337 80711,6950.167,96.106,574.083,569.981,0.0
49135.0,STARLINK-3073,PAYLOAD,2023-02-24 11:22:39,14.98326865,0.0003138,69.9986,171.1847,270.2335,89.8464,9.4862e-05,1.039e-05,0.0,0 STARLINK-3073,1 49135U 21082F   23055.47407175  .00001039  00000-0  94862-4 0  9991,2 49135  69.9986 171.1847 0003138 270.2335  89.8464 14.98326865 80826,6950.203,96.107,574.249,569.887,0.0
49135.0,STARLINK-3073,PAYLOAD,2023-02-24 14:34:55,14.98327854,0.0003066,69.9986,170.8481,269.0277,91.053,0.00015631,1.772e-05,0.0,0 STARLINK-3073,1 49135U 21082F   23055.60759043  .00001772  00000-0  15631-3 0  9990,2 49135  69.9986 170.8481 0003066 269.0277  91.0530 14.98327854 80847,6950.2,96.107,574.195,569.934,0.0
49135.0,STARLINK-3073,PAYLOAD,2023-02-24 17:47:11,14.9833136,0.0002715,69.9998,170.512,266.2347,93.8501,0.0002397,2.768e-05,0.0,0 STARLINK-3073,1 49135U 21082F   23055.74110826  .00002768  00000-0  23970-3 0  9996,2 49135  69.9998 170.5120 0002715 266.2347  93.8501 14.98331360 80861,6950.189,96.107,573.941,570.167,0.0
49135.0,STARLINK-3073,PAYLOAD,2023-02-25 06:36:18,14.98289142,0.0002809,70.0015,169.167,265.0341,95.0498,0.00064624,7.618e-05,0.0,0 STARLINK-3073,1 49135U 21082F   23056.27521090  .00007618  00000-0  64624-3 0  9994,2 49135  70.0015 169.1670 0002809 265.0341  95.0498 14.98289142 80941,6950.319,96.11,574.137,570.232,0.0
49135.0,STARLINK-3073,PAYLOAD,2023-02-25 11:24:42,14.98312017,0.0002933,69.9989,168.6602,269.946,90.1363,1.3964e-05,7.4e-07,0.0,0 STARLINK-3073,1 49135U 21082F   23056.47548913  .00000074  00000-0  13964-4 0  9990,2 49135  69.9989 168.6602 0002933 269.9460  90.1363 14.98312017 80978,6950.249,96.108,574.152,570.075,0.0
49135.0,STARLINK-3073,PAYLOAD,2023-02-25 13:00:50,14.98311035,0.000295,69.999,168.4922,268.652,91.4301,-1.1099e-05,-2.25e-06,0.0,0 STARLINK-3073,1 49135U 21082F   23056.54225053 -.00000225  00000-0 -11099-4 0  9992,2 49135  69.9990 168.4922 0002950 268.6520  91.4301 14.98311035 80981,6950.252,96.108,574.167,570.066,0.0
49135.0,STARLINK-3073,PAYLOAD,2023-02-25 19:25:22,14.98314968,0.0003025,69.9996,167.8201,261.703,98.3786,-1.2031e-05,-2.36e-06,0.0,0 STARLINK-3073,1 49135U 21082F   23056.80928995 -.00000236  00000-0 -12031-4 0  9995,2 49135  69.9996 167.8201 0003025 261.7030  98.3786 14.98314968 81021,6950.239,96.108,574.207,570.002,0.0
49135.0,STARLINK-3073,PAYLOAD,2023-02-26 08:14:25,14.98347804,0.0003133,69.9986,166.4744,256.5367,103.5443,-1.1401e-05,-2.29e-06,0.0,0 STARLINK-3073,1 49135U 21082F   23057.34335120 -.00000229  00000-0 -11401-4 0  9999,2 49135  69.9986 166.4744 0003133 256.5367 103.5443 14.98347804 81105,6950.138,96.106,574.18,569.825,0.0
49135.0,STARLINK-3073,PAYLOAD,2023-02-26 11:26:41,14.98342794,0.0003557,69.9996,166.1367,272.4536,87.6216,0.00030637,3.566e-05,0.0,0 STARLINK-3073,1 49135U 21082F   23057.47687345  .00003566  00000-0  30637-3 0  9998,2 49135  69.9996 166.1367 0003557 272.4536  87.6216 14.98342794 81124,6950.153,96.106,574.49,569.546,0.0
49135.0,STARLINK-3073,PAYLOAD,2023-02-26 19:27:21,14.98362511,0.0003373,69.9999,165.2947,274.0669,86.0104,0.0013235,0.00015748,0.0,0 STARLINK-3073,1 49135U 21082F   23057.81067033  .00015748  00000-0  13235-2 0  9991,2 49135  69.9999 165.2947 0003373 274.0669  86.0104 14.98362511 81175,6950.092,96.105,574.302,569.613,0.0
49135.0,STARLINK-3073,PAYLOAD,2023-02-27 19:29:21,14.98386632,0.0003608,69.9998,162.7684,268.2375,91.837,0.0036833,0.000442,0.0,0 STARLINK-3073,1 49135U 21082F   23058.81205936  .00044200  00000-0  36833-2 0  9992,2 49135  69.9998 162.7684 0003608 268.2375  91.8370 14.98386632 81320,6950.018,96.103,574.39,569.375,0.0
49135.0,STARLINK-3073,PAYLOAD,2023-02-28 00:17:46,14.98349153,0.0003078,70.0,162.2633,266.5577,93.5229,0.0021025,0.00025096,0.0,0 STARLINK-3073,1 49135U 21082F   23059.01234148  .00025096  00000-0  21025-2 0  9991,2 49135  70.0000 162.2633 0003078 266.5577  93.5229 14.98349153 81354,6950.134,96.106,574.138,569.859,0.0
